{
  "norad_id": 63651,
  "name": "STARLINK-33705",
  "history": [
    {
      "epoch": "2026-03-28T18:06:14.308128Z",
      "apogee_km": 484.0451191810216,
      "perigee_km": 481.9135075647828,
      "latitude_deg": 2.8690082754346895e-05,
      "longitude_deg": 159.7103737154397,
      "height_km": 482.7496314625739,
      "semi_major_axis_km": 6861.1163133729015,
      "eccentricity": 0.00015534,
      "inclination_deg": 42.9989,
      "raan_deg": 257.4402,
      "arg_perigee_deg": 270.3431,
      "mean_anomaly_deg": 89.7243,
      "mean_motion_rev_day": 15.27603305
    },
    {
      "epoch": "2026-03-29T03:31:09.786720Z",
      "apogee_km": 484.7491544982522,
      "perigee_km": 481.0606583693543,
      "latitude_deg": 4.4000193024830344e-05,
      "longitude_deg": 15.876252039922596,
      "height_km": 482.4845938002266,
      "semi_major_axis_km": 6861.041906433803,
      "eccentricity": 0.0002688,
      "inclination_deg": 43.0013,
      "raan_deg": 255.2239,
      "arg_perigee_deg": 276.167,
      "mean_anomaly_deg": 83.8876,
      "mean_motion_rev_day": 15.27628155
    },
    {
      "epoch": "2026-03-29T03:31:09.787584Z",
      "apogee_km": 484.7494289399283,
      "perigee_km": 481.0603839276773,
      "latitude_deg": 4.7124296798324014e-05,
      "longitude_deg": 15.876251761596377,
      "height_km": 482.4845643227522,
      "semi_major_axis_km": 6861.041906433803,
      "eccentricity": 0.00026884,
      "inclination_deg": 43.0013,
      "raan_deg": 255.2239,
      "arg_perigee_deg": 276.167,
      "mean_anomaly_deg": 83.8876,
      "mean_motion_rev_day": 15.27628155
    },
    {
      "epoch": "2026-03-30T10:54:16.932960Z",
      "apogee_km": 483.4057501281077,
      "perigee_km": 482.5405641372936,
      "latitude_deg": -1.2181958786413027e-05,
      "longitude_deg": -103.5790321428974,
      "height_km": 482.60742620535933,
      "semi_major_axis_km": 6861.1101571327,
      "eccentricity": 6.305e-05,
      "inclination_deg": 42.9939,
      "raan_deg": 247.8374,
      "arg_perigee_deg": 289.0313,
      "mean_anomaly_deg": 71.047,
      "mean_motion_rev_day": 15.27605361
    }
  ]
}